{
    "links": {
        "self": "http://www.neowsapp.com/rest/v1/neo/3753296?api_key=iIulBulltgU6a56xZRHN4H3l9WmuAYTsLGpBGhQ2"
    },
    "id": "3753296",
    "neo_reference_id": "3753296",
    "name": "(2016 JY28)",
    "designation": "2016 JY28",
    "nasa_jpl_url": "http://ssd.jpl.nasa.gov/sbdb.cgi?sstr=3753296",
    "absolute_magnitude_h": 22.9,
    "estimated_diameter": {
        "kilometers": {
            "estimated_diameter_min": 0.0699125232,
            "estimated_diameter_max": 0.1563291544
        },
        "meters": {
            "estimated_diameter_min": 69.9125232246,
            "estimated_diameter_max": 156.3291544087
        },
        "miles": {
            "estimated_diameter_min": 0.0434416145,
            "estimated_diameter_max": 0.097138403
        },
        "feet": {
            "estimated_diameter_min": 229.3718026961,
            "estimated_diameter_max": 512.8909429502
        }
    },
    "is_potentially_hazardous_asteroid": false,
    "close_approach_data": [
        {
            "close_approach_date": "2016-04-29",
            "close_approach_date_full": "2016-Apr-29 06:53",
            "epoch_date_close_approach": 1461912780000,
            "relative_velocity": {
                "kilometers_per_second": "13.1832351668",
                "kilometers_per_hour": "47459.6466006395",
                "miles_per_hour": "29489.578744714"
            },
            "miss_distance": {
                "astronomical": "0.0831977636",
                "lunar": "32.3639300404",
                "kilometers": "12446208.223323532",
                "miles": "7733715.1728354616"
            },
            "orbiting_body": "Earth"
        },
        {
            "close_approach_date": "2022-06-13",
            "close_approach_date_full": "2022-Jun-13 11:27",
            "epoch_date_close_approach": 1655119620000,
            "relative_velocity": {
                "kilometers_per_second": "11.2649248551",
                "kilometers_per_hour": "40553.7294784003",
                "miles_per_hour": "25198.5104083982"
            },
            "miss_distance": {
                "astronomical": "1.8563943316",
                "lunar": "722.1373949924",
                "kilometers": "277712637.887433692",
                "miles": "172562631.3477092696"
            },
            "orbiting_body": "Juptr"
        }
    ],
    "orbital_data": {
        "orbit_id": "6",
        "orbit_determination_date": "2017-04-06 08:25:55",
        "first_observation_date": "2016-05-10",
        "last_observation_date": "2016-05-26",
        "data_arc_in_days": 16,
        "observations_used": 51,
        "orbit_uncertainty": "8",
        "minimum_orbit_intersection": ".076336",
        "jupiter_tisserand_invariant": "2.890",
        "epoch_osculation": "2457521.5",
        "eccentricity": ".6755835917337261",
        "semi_major_axis": "2.854274225209542",
        "inclination": "12.25601861209644",
        "ascending_node_longitude": "59.50936794124087",
        "orbital_period": "1761.335021570763",
        "perihelion_distance": ".9259733923494814",
        "perihelion_argument": "117.9759154250108",
        "aphelion_distance": "4.782575058069602",
        "perihelion_time": "2457475.311663601411",
        "mean_anomaly": "9.440453349223322",
        "mean_motion": ".2043904172636908",
        "equinox": "J2000",
        "orbit_class": {
            "orbit_class_type": "APO",
            "orbit_class_description": "Near-Earth asteroid orbits which cross the Earth’s orbit similar to that of 1862 Apollo",
            "orbit_class_range": "a (semi-major axis) > 1.0 AU; q (perihelion) < 1.017 AU"
        }
    },
    "is_sentry_object": false
}